0 COSMOS 2479
1 38101U 12012A   13281.78183057 -.00000071  00000-0  10000-3 0  4160
2 38101 001.1799 293.0728 0002071 217.0568 314.7870 01.00274742  5598
0 COSMOS 2479
1 38101U 12012A   13284.13918852 -.00000078  00000-0  10000-3 0  4179
2 38101 001.1787 293.2169 0001648 218.4410 084.2452 01.00274756  5619
0 COSMOS 2479
1 38101U 12012A   13285.41552027 -.00000082  00000-0  10000-3 0  4185
2 38101 001.1761 293.2606 0001697 217.0049 186.3842 01.00274742  5638
0 COSMOS 2479
1 38101U 12012A   13285.77092819 -.00000083  00000-0  10000-3 0  4194
2 38101 001.1764 293.5170 0001805 216.7918 314.6317 01.00274145  5632
0 COSMOS 2479
1 38101U 12012A   13287.49874723 -.00000085  00000-0  10000-3 0  4201
2 38101 001.1724 293.5566 0001800 217.1015 218.0150 01.00274289  5658
0 COSMOS 2479
1 38101U 12012A   13288.77375297 -.00000084  00000-0  10000-3 0  4215
2 38101 001.1691 293.5788 0001804 217.5988 317.7644 01.00274356  5665
0 COSMOS 2479
1 38101U 12012A   13290.27584571 -.00000082  00000-0  10000-3 0  4229
2 38101 001.1647 293.7687 0001897 218.1844 139.2412 01.00274577  5672
0 COSMOS 2479
1 38101U 12012A   13291.67362498 -.00000078  00000-0  10000-3 0  4232
2 38101 001.1618 293.7677 0001889 218.5101 283.5086 01.00274684  5691
0 COSMOS 2479
1 38101U 12012A   13293.48008824 -.00000074  00000-0  10000-3 0  4240
2 38101 001.1584 293.7315 0001838 218.7487 215.4320 01.00274830  5716
0 COSMOS 2479
1 38101U 12012A   13294.60693137 -.00000072  00000-0  10000-3 0  4251
2 38101 001.1560 293.7460 0001768 219.1744 261.7812 01.00274996  5728
0 COSMOS 2479
1 38101U 12012A   13295.61553764 -.00000070  00000-0  10000-3 0  4263
2 38101 001.1541 293.7458 0001755 219.4077 265.6534 01.00275104  5739
